start=new Date('2023-04-30T00:00:00.000Z').valueOf();
sats=[{"TLE_LINE1":"1 46082U 20055BH  23119.45088612  .00010065  00000-0  69309-3 0  9994","RCS_SIZE":"LARGE","BSTAR":"0.00069309000000","OBJECT_ID":"2020-055BH","EPHEMERIS_TYPE":"0","ARG_OF_PERICENTER":"80.3449","NORAD_CAT_ID":"46082","INCLINATION":"53.0533","MEAN_MOTION_DDOT":"0.0000000000000","REV_AT_EPOCH":"15176","RA_OF_ASC_NODE":"108.8732","MEAN_MOTION":"15.06427757","MEAN_ANOMALY":"279.7717","CLASSIFICATION_TYPE":"U","GP_ID":"230927016","SEMIMAJOR_AXIS":"6925.263","OBJECT_TYPE":"PAYLOAD","FILE":"3896517","REF_FRAME":"TEME","MEAN_MOTION_DOT":"0.00010065","MEAN_ELEMENT_THEORY":"SGP4","TIME_SYSTEM":"UTC","TLE_LINE2":"2 46082  53.0533 108.8732 0001571  80.3449 279.7717 15.06427757151766","APOAPSIS":"548.216","OBJECT_NAME":"STARLINK-1578","LAUNCH_DATE":"2020-08-07","CENTER_NAME":"EARTH","PERIAPSIS":"546.041","SITE":"AFETR","PERIOD":"95.590","ECCENTRICITY":"0.00015710","COUNTRY_CODE":"US","ELEMENT_SET_NO":"999","DECAY_DATE":null,"EPOCH":"2023-04-29T10:49:16.560768"},{"ELEMENT_SET_NO":"999","COUNTRY_CODE":"US","EPOCH":"2023-04-29T11:42:21.498048","DECAY_DATE":null,"LAUNCH_DATE":"2020-08-07","CENTER_NAME":"EARTH","MEAN_ELEMENT_THEORY":"SGP4","TLE_LINE2":"2 46083  53.0536 108.7076 0001425  79.6319 280.4830 15.06426451151760","TIME_SYSTEM":"UTC","APOAPSIS":"548.119","OBJECT_NAME":"STARLINK-1579","SITE":"AFETR","PERIOD":"95.590","ECCENTRICITY":"0.00014250","PERIAPSIS":"546.146","MEAN_MOTION_DDOT":"0.0000000000000","REV_AT_EPOCH":"15176","RA_OF_ASC_NODE":"108.7076","MEAN_MOTION":"15.06426451","NORAD_CAT_ID":"46083","INCLINATION":"53.0536","GP_ID":"230925284","SEMIMAJOR_AXIS":"6925.267","FILE":"3896517","OBJECT_TYPE":"PAYLOAD","REF_FRAME":"TEME","MEAN_MOTION_DOT":"0.00008136","MEAN_ANOMALY":"280.4830","CLASSIFICATION_TYPE":"U","RCS_SIZE":"LARGE","BSTAR":"0.00056408000000","TLE_LINE1":"1 46083U 20055BJ  23119.48774882  .00008136  00000-0  56408-3 0  9991","ARG_OF_PERICENTER":"79.6319","OBJECT_ID":"2020-055BJ","EPHEMERIS_TYPE":"0"},{"RCS_SIZE":"LARGE","BSTAR":"0.00140980000000","TLE_LINE1":"1 46117U 20057A   23119.52092717  .00020770  00000-0  14098-2 0  9992","ARG_OF_PERICENTER":"105.7562","OBJECT_ID":"2020-057A","EPHEMERIS_TYPE":"0","RA_OF_ASC_NODE":"308.5602","MEAN_MOTION":"15.06382471","MEAN_MOTION_DDOT":"0.0000000000000","REV_AT_EPOCH":"14947","NORAD_CAT_ID":"46117","INCLINATION":"53.0533","OBJECT_TYPE":"PAYLOAD","FILE":"3896397","MEAN_MOTION_DOT":"0.00020770","REF_FRAME":"TEME","GP_ID":"230903434","SEMIMAJOR_AXIS":"6925.402","MEAN_ANOMALY":"254.3540","CLASSIFICATION_TYPE":"U","CENTER_NAME":"EARTH","LAUNCH_DATE":"2020-08-18","TLE_LINE2":"2 46117  53.0533 308.5602 0001022 105.7562 254.3540 15.06382471149470","TIME_SYSTEM":"UTC","OBJECT_NAME":"STARLINK-1585","APOAPSIS":"547.975","MEAN_ELEMENT_THEORY":"SGP4","PERIOD":"95.593","ECCENTRICITY":"0.00010220","SITE":"AFETR","PERIAPSIS":"546.560","ELEMENT_SET_NO":"999","COUNTRY_CODE":"US","EPOCH":"2023-04-29T12:30:08.107488","DECAY_DATE":null},{"OBJECT_ID":"2020-057B","EPHEMERIS_TYPE":"0","ARG_OF_PERICENTER":"63.7837","TLE_LINE1":"1 46118U 20057B   23119.06572173  .00022494  00000-0  15255-2 0  9992","BSTAR":"0.00152550000000","RCS_SIZE":"LARGE","CLASSIFICATION_TYPE":"U","MEAN_ANOMALY":"296.3272","REF_FRAME":"TEME","MEAN_MOTION_DOT":"0.00022494","FILE":"3896517","OBJECT_TYPE":"PAYLOAD","SEMIMAJOR_AXIS":"6925.447","GP_ID":"230925537","INCLINATION":"53.0549","NORAD_CAT_ID":"46118","RA_OF_ASC_NODE":"330.6086","MEAN_MOTION":"15.06367987","REV_AT_EPOCH":"14974","MEAN_MOTION_DDOT":"0.0000000000000","PERIAPSIS":"546.505","ECCENTRICITY":"0.00011650","PERIOD":"95.594","SITE":"AFETR","APOAPSIS":"548.118","OBJECT_NAME":"STARLINK-1588","TIME_SYSTEM":"UTC","TLE_LINE2":"2 46118  53.0549 330.6086 0001165  63.7837 296.3272 15.06367987149749","MEAN_ELEMENT_THEORY":"SGP4","CENTER_NAME":"EARTH","LAUNCH_DATE":"2020-08-18","DECAY_DATE":null,"EPOCH":"2023-04-29T01:34:38.357472","COUNTRY_CODE":"US","ELEMENT_SET_NO":"999"},{"COUNTRY_CODE":"US","ELEMENT_SET_NO":"999","DECAY_DATE":null,"EPOCH":"2023-04-28T22:07:38.044704","OBJECT_NAME":"STARLINK-1593","APOAPSIS":"547.991","TIME_SYSTEM":"UTC","TLE_LINE2":"2 46119  53.0542 331.2549 0000985  61.5906 298.5182 15.06368863149700","MEAN_ELEMENT_THEORY":"SGP4","CENTER_NAME":"EARTH","LAUNCH_DATE":"2020-08-18","PERIAPSIS":"546.627","ECCENTRICITY":"0.00009850","PERIOD":"95.594","SITE":"AFETR","INCLINATION":"53.0542","NORAD_CAT_ID":"46119","MEAN_MOTION":"15.06368863","RA_OF_ASC_NODE":"331.2549","REV_AT_EPOCH":"14970","MEAN_MOTION_DDOT":"0.0000000000000","CLASSIFICATION_TYPE":"U","MEAN_ANOMALY":"298.5182","REF_FRAME":"TEME","MEAN_MOTION_DOT":"0.00017667","OBJECT_TYPE":"PAYLOAD","FILE":"3896517","SEMIMAJOR_AXIS":"6925.444","GP_ID":"230926288","TLE_LINE1":"1 46119U 20057C   23118.92196811  .00017667  00000-0  12030-2 0  9992","BSTAR":"0.00120300000000","RCS_SIZE":"LARGE","OBJECT_ID":"2020-057C","EPHEMERIS_TYPE":"0","ARG_OF_PERICENTER":"61.5906"},{"OBJECT_ID":"2020-057D","EPHEMERIS_TYPE":"0","ARG_OF_PERICENTER":"93.4347","TLE_LINE1":"1 46120U 20057D   23119.57070043  .00021433  00000-0  14536-2 0  9993","RCS_SIZE":"LARGE","BSTAR":"0.00145360000000","MEAN_ANOMALY":"266.6739","CLASSIFICATION_TYPE":"U","GP_ID":"230933600","SEMIMAJOR_AXIS":"6925.364","OBJECT_TYPE":"PAYLOAD","FILE":"3896544","MEAN_MOTION_DOT":"0.00021433","REF_FRAME":"TEME","NORAD_CAT_ID":"46120","INCLINATION":"53.0533","MEAN_MOTION_DDOT":"0.0000000000000","REV_AT_EPOCH":"14920","RA_OF_ASC_NODE":"328.3373","MEAN_MOTION":"15.06395108","PERIAPSIS":"546.643","SITE":"AFETR","PERIOD":"95.592","ECCENTRICITY":"0.00008460","MEAN_ELEMENT_THEORY":"SGP4","TLE_LINE2":"2 46120  53.0533 328.3373 0000846  93.4347 266.6739 15.06395108149204","TIME_SYSTEM":"UTC","OBJECT_NAME":"STARLINK-1601","APOAPSIS":"547.814","LAUNCH_DATE":"2020-08-18","CENTER_NAME":"EARTH","DECAY_DATE":null,"EPOCH":"2023-04-29T13:41:48.517152","COUNTRY_CODE":"US","ELEMENT_SET_NO":"999"},{"EPOCH":"2023-04-29T16:07:46.684704","DECAY_DATE":null,"ELEMENT_SET_NO":"999","COUNTRY_CODE":"US","SITE":"AFETR","ECCENTRICITY":"0.00011860","PERIOD":"95.590","PERIAPSIS":"546.301","LAUNCH_DATE":"2020-08-18","CENTER_NAME":"EARTH","MEAN_ELEMENT_THEORY":"SGP4","OBJECT_NAME":"STARLINK-1602","APOAPSIS":"547.944","TLE_LINE2":"2 46121  53.0546 307.8832 0001186  73.2571 286.8548 15.06429793149495","TIME_SYSTEM":"UTC","SEMIMAJOR_AXIS":"6925.257","GP_ID":"230933731","REF_FRAME":"TEME","MEAN_MOTION_DOT":"0.00020722","FILE":"3896544","OBJECT_TYPE":"PAYLOAD","CLASSIFICATION_TYPE":"U","MEAN_ANOMALY":"286.8548","REV_AT_EPOCH":"14949","MEAN_MOTION_DDOT":"0.0000000000000","MEAN_MOTION":"15.06429793","RA_OF_ASC_NODE":"307.8832","INCLINATION":"53.0546","NORAD_CAT_ID":"46121","ARG_OF_PERICENTER":"73.2571","OBJECT_ID":"2020-057E","EPHEMERIS_TYPE":"0","BSTAR":"0.00140480000000","RCS_SIZE":"LARGE","TLE_LINE1":"1 46121U 20057E   23119.67206811  .00020722  00000-0  14048-2 0  9997"},{"REV_AT_EPOCH":"15025","MEAN_MOTION_DDOT":"0.0000000000000","MEAN_MOTION":"15.06383515","RA_OF_ASC_NODE":"291.4204","INCLINATION":"53.0529","NORAD_CAT_ID":"46122","SEMIMAJOR_AXIS":"6925.399","GP_ID":"230926038","MEAN_MOTION_DOT":"0.00021416","REF_FRAME":"TEME","FILE":"3896517","OBJECT_TYPE":"PAYLOAD","CLASSIFICATION_TYPE":"U","MEAN_ANOMALY":"287.1461","BSTAR":"0.00145290000000","RCS_SIZE":"LARGE","TLE_LINE1":"1 46122U 20057F   23118.88510572  .00021416  00000-0  14529-2 0  9997","ARG_OF_PERICENTER":"72.9589","OBJECT_ID":"2020-057F","EPHEMERIS_TYPE":"0","ELEMENT_SET_NO":"999","COUNTRY_CODE":"US","EPOCH":"2023-04-28T21:14:33.134208","DECAY_DATE":null,"LAUNCH_DATE":"2020-08-18","CENTER_NAME":"EARTH","MEAN_ELEMENT_THEORY":"SGP4","OBJECT_NAME":"STARLINK-1604","APOAPSIS":"547.648","TLE_LINE2":"2 46122  53.0529 291.4204 0000554  72.9589 287.1461 15.06383515150256","TIME_SYSTEM":"UTC","SITE":"AFETR","ECCENTRICITY":"0.00005540","PERIOD":"95.593","PERIAPSIS":"546.880"},{"REV_AT_EPOCH":"14977","MEAN_MOTION_DDOT":"0.0000000000000","RA_OF_ASC_NODE":"287.9079","MEAN_MOTION":"15.06401377","INCLINATION":"53.0536","NORAD_CAT_ID":"46123","SEMIMAJOR_AXIS":"6925.344","GP_ID":"230933760","MEAN_MOTION_DOT":"0.00000646","REF_FRAME":"TEME","OBJECT_TYPE":"PAYLOAD","FILE":"3896547","CLASSIFICATION_TYPE":"U","MEAN_ANOMALY":"286.2990","BSTAR":"0.00006222700000","RCS_SIZE":"LARGE","TLE_LINE1":"1 46123U 20057G   23119.66652798  .00000646  00000-0  62227-4 0  9994","ARG_OF_PERICENTER":"73.8136","EPHEMERIS_TYPE":"0","OBJECT_ID":"2020-057G","ELEMENT_SET_NO":"999","COUNTRY_CODE":"US","EPOCH":"2023-04-29T15:59:48.017472","DECAY_DATE":null,"LAUNCH_DATE":"2020-08-18","CENTER_NAME":"EARTH","MEAN_ELEMENT_THEORY":"SGP4","APOAPSIS":"548.069","OBJECT_NAME":"STARLINK-1605","TLE_LINE2":"2 46123  53.0536 287.9079 0001241  73.8136 286.2990 15.06401377149776","TIME_SYSTEM":"UTC","SITE":"AFETR","ECCENTRICITY":"0.00012410","PERIOD":"95.592","PERIAPSIS":"546.350"},{"ARG_OF_PERICENTER":"100.1954","EPHEMERIS_TYPE":"0","OBJECT_ID":"2020-057H","BSTAR":"0.00121710000000","RCS_SIZE":"LARGE","TLE_LINE1":"1 46124U 20057H   23119.67389697  .00017904  00000-0  12171-2 0  9997","REF_FRAME":"TEME","MEAN_MOTION_DOT":"0.00017904","FILE":"3896552","OBJECT_TYPE":"PAYLOAD","SEMIMAJOR_AXIS":"6925.284","GP_ID":"230933796","CLASSIFICATION_TYPE":"U","MEAN_ANOMALY":"259.9142","RA_OF_ASC_NODE":"287.8785","MEAN_MOTION":"15.06421169","REV_AT_EPOCH":"14978","MEAN_MOTION_DDOT":"0.0000000000000","INCLINATION":"53.0526","NORAD_CAT_ID":"46124","ECCENTRICITY":"0.00009500","PERIOD":"95.591","SITE":"AFETR","PERIAPSIS":"546.491","CENTER_NAME":"EARTH","LAUNCH_DATE":"2020-08-18","OBJECT_NAME":"STARLINK-1614","APOAPSIS":"547.807","TIME_SYSTEM":"UTC","TLE_LINE2":"2 46124  53.0526 287.8785 0000950 100.1954 259.9142 15.06421169149785","MEAN_ELEMENT_THEORY":"SGP4","EPOCH":"2023-04-29T16:10:24.698208","DECAY_DATE":null,"ELEMENT_SET_NO":"999","COUNTRY_CODE":"US"}];
